NORAD_CAT_ID,OBJECT_NAME,OBJECT_TYPE,EPOCH,MEAN_MOTION,ECCENTRICITY,INCLINATION,RA_OF_ASC_NODE,ARG_OF_PERICENTER,MEAN_ANOMALY,BSTAR,MEAN_MOTION_DOT,MEAN_MOTION_DDOT,TLE_LINE0,TLE_LINE1,TLE_LINE2,SEMIMAJOR_AXIS,PERIOD,APOGEE,PERIGEE,DECAYED
49408.0,STARLINK-3151,PAYLOAD,2023-02-06 21:38:58,15.08848664,0.0001234,53.216,247.4788,82.857,277.2562,0.0001311,1.8e-05,0.0,0 STARLINK-3151,1 49408U 21104A   23037.90206548  .00001800  00000-0  13110-3 0  9990,2 49408  53.2160 247.4788 0001234  82.8570 277.2562 15.08848664 68526,6917.854,95.437,540.573,538.865,0.0
49408.0,STARLINK-3151,PAYLOAD,2023-02-07 00:49:44,15.08851704,0.0001243,53.216,246.884,83.7491,276.3643,0.00019623,2.837e-05,0.0,0 STARLINK-3151,1 49408U 21104A   23038.03454390  .00002837  00000-0  19623-3 0  9991,2 49408  53.2160 246.8840 0001243  83.7491 276.3643 15.08851704 68541,6917.845,95.437,540.57,538.85,0.0
49408.0,STARLINK-3151,PAYLOAD,2023-02-07 19:54:22,15.08845898,0.0001264,53.2156,243.3157,88.8292,271.2845,0.00023638,3.477e-05,0.0,0 STARLINK-3151,1 49408U 21104A   23038.82942853  .00003477  00000-0  23638-3 0  9996,2 49408  53.2156 243.3157 0001264  88.8292 271.2845 15.08845898 69767,6917.862,95.437,540.602,538.853,0.0
49408.0,STARLINK-3151,PAYLOAD,2023-02-08 00:40:31,15.08853649,0.0001252,53.2153,242.4232,84.59,275.5235,0.00052465,8.075e-05,0.0,0 STARLINK-3151,1 49408U 21104A   23039.02814658  .00008075  00000-0  52465-3 0  9999,2 49408  53.2153 242.4232 0001252  84.5900 275.5235 15.08853649 68698,6917.839,95.437,540.57,538.838,0.0
49408.0,STARLINK-3151,PAYLOAD,2023-02-08 19:45:09,15.08845902,0.0001215,53.2154,238.8546,90.735,269.3781,0.00044173,6.75e-05,0.0,0 STARLINK-3151,1 49408U 21104A   23039.82302897  .00006750  00000-0  44173-3 0  9999,2 49408  53.2154 238.8546 0001215  90.7350 269.3781 15.08845902 69919,6917.862,95.437,540.568,538.887,0.0
49408.0,STARLINK-3151,PAYLOAD,2023-02-08 21:20:32,15.08848073,0.0001135,53.2159,238.5578,92.489,267.6232,0.00053512,8.241e-05,0.0,0 STARLINK-3151,1 49408U 21104A   23039.88926816  .00008241  00000-0  53512-3 0  9992,2 49408  53.2159 238.5578 0001135  92.4890 267.6232 15.08848073 68828,6917.856,95.437,540.506,538.936,0.0
49408.0,STARLINK-3151,PAYLOAD,2023-02-09 00:31:18,15.0885121,0.0001157,53.2159,237.9625,86.2222,273.8902,0.00037992,5.766e-05,0.0,0 STARLINK-3151,1 49408U 21104A   23040.02174683  .00005766  00000-0  37992-3 0  9990,2 49408  53.2159 237.9625 0001157  86.2222 273.8902 15.08851210 68840,6917.846,95.437,540.512,538.911,0.0
49408.0,STARLINK-3151,PAYLOAD,2023-02-09 19:35:56,15.08836654,0.000113,53.2161,234.3936,90.2552,269.8569,3.5951e-05,2.84e-06,0.0,0 STARLINK-3151,1 49408U 21104A   23040.81663193  .00000284  00000-0  35951-4 0  9990,2 49408  53.2161 234.3936 0001130  90.2552 269.8569 15.08836654 70067,6917.891,95.438,540.537,538.974,0.0
49408.0,STARLINK-3151,PAYLOAD,2023-02-09 22:46:42,15.08848061,0.0001099,53.2162,233.7992,93.8383,266.2734,0.00027127,4.033e-05,0.0,0 STARLINK-3151,1 49408U 21104A   23040.94910838  .00004033  00000-0  27127-3 0  9996,2 49408  53.2162 233.7992 0001099  93.8383 266.2734 15.08848061 70080,6917.856,95.437,540.481,538.96,0.0
49408.0,STARLINK-3151,PAYLOAD,2023-02-10 16:15:57,15.08837583,0.0001076,53.2165,230.5279,94.4692,265.6423,5.8821e-05,6.48e-06,0.0,0 STARLINK-3151,1 49408U 21104A   23041.67775349  .00000648  00000-0  58821-4 0  9997,2 49408  53.2165 230.5279 0001076  94.4692 265.6423 15.08837583 69095,6917.888,95.438,540.497,539.008,0.0
49408.0,STARLINK-3151,PAYLOAD,2023-02-11 04:59:02,15.08831934,0.0001113,53.2169,228.1482,122.9563,237.1536,-7.2785e-05,-1.446e-05,0.0,0 STARLINK-3151,1 49408U 21104A   23042.20767347 -.00001446  00000-0 -72785-4 0  9990,2 49408  53.2169 228.1482 0001113 122.9563 237.1536 15.08831934 70279,6917.905,95.438,540.54,539.0,0.0
49408.0,STARLINK-3151,PAYLOAD,2023-02-11 19:17:31,15.08844468,0.0001178,53.2169,225.4735,96.7219,263.3907,0.00020683,3.006e-05,0.0,0 STARLINK-3151,1 49408U 21104A   23042.80383295  .00003006  00000-0  20683-3 0  9993,2 49408  53.2169 225.4735 0001178  96.7219 263.3907 15.08844468 70366,6917.867,95.437,540.547,538.917,0.0
49408.0,STARLINK-3151,PAYLOAD,2023-02-11 20:52:54,15.08846745,0.0001115,53.2165,225.1752,97.2403,262.8716,0.00032114,4.828e-05,0.0,0 STARLINK-3151,1 49408U 21104A   23042.87007225  .00004828  00000-0  32114-3 0  9991,2 49408  53.2165 225.1752 0001115  97.2403 262.8716 15.08846745 69270,6917.86,95.437,540.496,538.953,0.0
49408.0,STARLINK-3151,PAYLOAD,2023-02-12 11:11:22,15.08840549,0.0001202,53.2157,222.4983,93.1962,266.9167,0.0003816,5.791e-05,0.0,0 STARLINK-3151,1 49408U 21104A   23043.46623735  .00005791  00000-0  38160-3 0  9994,2 49408  53.2157 222.4983 0001202  93.1962 266.9167 15.08840549 70463,6917.879,95.438,540.575,538.912,0.0
49408.0,STARLINK-3151,PAYLOAD,2023-02-13 12:37:33,15.08843816,0.0001266,53.2159,217.7413,78.4661,281.6473,0.00061565,9.525e-05,0.0,0 STARLINK-3151,1 49408U 21104A   23044.52607738  .00009525  00000-0  61565-3 0  9991,2 49408  53.2159 217.7413 0001266  78.4661 281.6473 15.08843816 70624,6917.869,95.437,540.61,538.858,0.0
49408.0,STARLINK-3151,PAYLOAD,2023-02-13 22:09:51,15.08853297,0.0001473,53.2156,215.957,82.5242,277.5917,0.00069508,0.00010796,0.0,0 STARLINK-3151,1 49408U 21104A   23044.92351531  .00010796  00000-0  69508-3 0  9999,2 49408  53.2156 215.9570 0001473  82.5242 277.5917 15.08853297 69580,6917.84,95.437,540.724,538.686,0.0
49408.0,STARLINK-3151,PAYLOAD,2023-02-14 22:00:38,15.08859844,0.0001625,53.2151,211.4962,78.4136,281.7039,0.00049892,7.665e-05,0.0,0 STARLINK-3151,1 49408U 21104A   23045.91710749  .00007665  00000-0  49892-3 0  9994,2 49408  53.2151 211.4962 0001625  78.4136 281.7039 15.08859844 70832,6917.82,95.436,540.809,538.561,0.0
49408.0,STARLINK-3151,PAYLOAD,2023-02-15 04:22:10,15.08839734,0.000109,53.2156,210.3081,89.7205,270.3912,-0.00021638,-3.73e-05,0.0,0 STARLINK-3151,1 49408U 21104A   23046.18206541 -.00003730  00000-0 -21638-3 0  9993,2 49408  53.2156 210.3081 0001090  89.7205 270.3912 15.08839734 70879,6917.881,95.438,540.5,538.992,0.0
49408.0,STARLINK-3151,PAYLOAD,2023-02-15 10:43:43,15.08836394,0.000162,53.213,209.1162,100.5099,259.6076,-4.0265e-06,-3.52e-06,0.0,0 STARLINK-3151,1 49408U 21104A   23046.44702847 -.00000352  00000-0 -40265-5 0  9998,2 49408  53.2130 209.1162 0001620 100.5099 259.6076 15.08836394 69811,6917.891,95.438,540.877,538.636,0.0
49408.0,STARLINK-3151,PAYLOAD,2023-02-15 17:05:15,15.08842242,0.0001639,53.213,207.9268,102.908,257.2095,0.00046005,7.042e-05,0.0,0 STARLINK-3151,1 49408U 21104A   23046.71198968  .00007042  00000-0  46005-3 0  9998,2 49408  53.2130 207.9268 0001639 102.9080 257.2095 15.08842242 69858,6917.874,95.437,540.872,538.605,0.0
49408.0,STARLINK-3151,PAYLOAD,2023-02-16 10:34:30,15.08841388,0.0002166,53.2101,204.6573,95.2522,264.8718,0.00044411,6.787e-05,0.0,0 STARLINK-3151,1 49408U 21104A   23047.44063475  .00006787  00000-0  44411-3 0  9997,2 49408  53.2101 204.6573 0002166  95.2522 264.8718 15.08841388 71062,6917.876,95.437,541.24,538.243,0.0
49408.0,STARLINK-3151,PAYLOAD,2023-02-16 16:56:03,15.08851533,0.0002164,53.211,203.4686,88.7843,271.3397,0.00065085,0.00010089,0.0,0 STARLINK-3151,1 49408U 21104A   23047.70559307  .00010089  00000-0  65085-3 0  9990,2 49408  53.2110 203.4686 0002164  88.7843 271.3397 15.08851533 70007,6917.845,95.437,541.207,538.213,0.0
49408.0,STARLINK-3151,PAYLOAD,2023-02-17 10:25:18,15.08841808,0.0002825,53.2102,200.1953,90.4172,269.7144,0.00013144,1.804e-05,0.0,0 STARLINK-3151,1 49408U 21104A   23048.43423633  .00001804  00000-0  13144-3 0  9997,2 49408  53.2102 200.1953 0002825  90.4172 269.7144 15.08841808 71217,6917.875,95.437,541.694,537.786,0.0
49408.0,STARLINK-3151,PAYLOAD,2023-02-17 21:32:59,15.08841731,0.0001677,53.2124,198.1167,93.1656,266.9528,0.00026816,3.983e-05,0.0,0 STARLINK-3151,1 49408U 21104A   23048.89791542  .00003983  00000-0  26816-3 0  9994,2 49408  53.2124 198.1167 0001677  93.1656 266.9528 15.08841731 70180,6917.875,95.437,540.9,538.58,0.0
49408.0,STARLINK-3151,PAYLOAD,2023-02-18 10:16:05,15.08824317,0.0001984,53.2117,195.737,94.9897,265.1322,-0.00016205,-2.865e-05,0.0,0 STARLINK-3151,1 49408U 21104A   23049.42784416 -.00002865  00000-0 -16205-3 0  9997,2 49408  53.2117 195.7370 0001984  94.9897 265.1322 15.08824317 71363,6917.928,95.439,541.166,538.421,0.0
49408.0,STARLINK-3151,PAYLOAD,2023-02-18 16:37:38,15.08836356,0.0002132,53.2122,194.546,95.9711,264.1525,7.5653e-05,9.16e-06,0.0,0 STARLINK-3151,1 49408U 21104A   23049.69280200  .00000916  00000-0  75653-4 0  9994,2 49408  53.2122 194.5460 0002132  95.9711 264.1525 15.08836356 71403,6917.892,95.438,541.231,538.282,0.0
49408.0,STARLINK-3151,PAYLOAD,2023-02-19 08:31:29,15.08834502,0.0001046,53.2165,191.5732,93.3164,266.7947,0.00020012,2.898e-05,0.0,0 STARLINK-3151,1 49408U 21104A   23050.35520726  .00002898  00000-0  20012-3 0  9998,2 49408  53.2165 191.5732 0001046  93.3164 266.7947 15.08834502 71504,6917.897,95.438,540.486,539.039,0.0
49408.0,STARLINK-3151,PAYLOAD,2023-02-19 14:53:02,15.08842404,0.0001194,53.2156,190.3843,95.6377,264.4751,0.00024137,3.556e-05,0.0,0 STARLINK-3151,1 49408U 21104A   23050.62016315  .00003556  00000-0  24137-3 0  9996,2 49408  53.2156 190.3843 0001194  95.6377 264.4751 15.08842404 70449,6917.873,95.437,540.564,538.912,0.0
49408.0,STARLINK-3151,PAYLOAD,2023-02-19 19:39:11,15.08851834,0.0001042,53.2158,189.4927,87.7558,272.3554,0.00052013,8.002e-05,0.0,0 STARLINK-3151,1 49408U 21104A   23050.81888082  .00008002  00000-0  52013-3 0  9990,2 49408  53.2158 189.4927 0001042  87.7558 272.3554 15.08851834 71579,6917.844,95.437,540.43,538.988,0.0
49408.0,STARLINK-3151,PAYLOAD,2023-02-20 02:00:44,15.0883738,0.0001442,53.2156,188.299,81.0884,279.0272,7.0869e-05,8.4e-06,0.0,0 STARLINK-3151,1 49408U 21104A   23051.08384643  .00000840  00000-0  70869-4 0  9996,2 49408  53.2156 188.2990 0001442  81.0884 279.0272 15.08837380 71613,6917.888,95.438,540.751,538.756,0.0
